NORAD_CAT_ID,OBJECT_NAME,OBJECT_TYPE,EPOCH,MEAN_MOTION,ECCENTRICITY,INCLINATION,RA_OF_ASC_NODE,ARG_OF_PERICENTER,MEAN_ANOMALY,BSTAR,MEAN_MOTION_DOT,MEAN_MOTION_DDOT,TLE_LINE0,TLE_LINE1,TLE_LINE2,SEMIMAJOR_AXIS,PERIOD,APOGEE,PERIGEE,DECAYED
53745.0,STARLINK-4656,PAYLOAD,2022-12-12 12:33:10,15.08846365,0.0001389,53.2158,175.6774,66.7343,293.3795,0.0002585,3.829e-05,0.0,0 STARLINK-4656,1 53745U 22107AX  22346.52303305  .00003829  00000-0  25850-3 0  9999,2 53745  53.2158 175.6774 0001389  66.7343 293.3795 15.08846365 15973,6917.861,95.437,540.687,538.765,0.0
53745.0,STARLINK-4656,PAYLOAD,2022-12-13 06:02:24,15.08837691,0.0001541999999999,53.2161,172.4072,62.6882,297.4267,-4.5237e-06,-3.6000000000000007e-06,0.0,0 STARLINK-4656,1 53745U 22107AX  22347.25167511 -.00000360  00000-0 -45237-5 0  9999,2 53745  53.2161 172.4072 0001542  62.6882 297.4267 15.08837691 15305,6917.887,95.438,540.819,538.686,0.0
53745.0,STARLINK-4656,PAYLOAD,2022-12-13 12:23:57,15.08840001,0.0001553,53.2172,171.2179,62.4561,297.6589,6.9565e-05,8.19e-06,0.0,0 STARLINK-4656,1 53745U 22107AX  22347.51663557  .00000819  00000-0  69565-4 0  9995,2 53745  53.2172 171.2179 0001553  62.4561 297.6589 15.08840001 16125,6917.88,95.438,540.82,538.6709999999998,0.0
53745.0,STARLINK-4656,PAYLOAD,2022-12-13 17:10:06,15.08837752,0.0001653,53.217,170.3263,58.4419,301.6734,-3.1118e-06,-3.38e-06,0.0,0 STARLINK-4656,1 53745U 22107AX  22347.71535708 -.00000338  00000-0 -31118-5 0  9995,2 53745  53.2170 170.3263 0001653  58.4419 301.6734 15.08837752 16155,6917.887,95.438,540.896,538.609,0.0
53745.0,STARLINK-4656,PAYLOAD,2022-12-14 12:14:43,15.08866478,0.0001271,53.2176,166.7566,66.2269,293.8856,-0.00054629,-8.978e-05,0.0,0 STARLINK-4656,1 53745U 22107AX  22348.51022205 -.00008978  00000-0 -54629-3 0  9995,2 53745  53.2176 166.7566 0001271  66.2269 293.8856 15.08866478 15492,6917.799,95.436,540.544,538.785,0.0
53745.0,STARLINK-4656,PAYLOAD,2022-12-14 17:00:57,15.08772444,0.0002195,53.2174,165.8652,70.044,290.0788,0.0022606,0.00035807,0.0,0 STARLINK-4656,1 53745U 22107AX  22348.70899353  .00035807  00000-0  22606-2 0  9990,2 53745  53.2174 165.8652 0002195  70.0440 290.0788 15.08772444 16309,6918.087,95.442,541.47,538.433,0.0
53745.0,STARLINK-4656,PAYLOAD,2022-12-15 12:05:31,15.08843316,0.0001463,53.2178,162.2965,66.39699999999999,293.7175,0.00015412,2.166e-05,0.0,0 STARLINK-4656,1 53745U 22107AX  22349.50383214  .00002166  00000-0  15412-3 0  9993,2 53745  53.2178 162.2965 0001463  66.3970 293.7175 15.08843316 16424,6917.87,95.437,540.747,538.7230000000002,0.0
53745.0,STARLINK-4656,PAYLOAD,2022-12-15 13:40:54,15.08842182,0.0001506999999999,53.2178,161.9993,65.1108,295.004,0.00013224,1.817e-05,0.0,0 STARLINK-4656,1 53745U 22107AX  22349.57007278  .00001817  00000-0  13224-3 0  9994,2 53745  53.2178 161.9993 0001507  65.1108 295.0040 15.08842182 15650,6917.874,95.437,540.781,538.696,0.0
53745.0,STARLINK-4656,PAYLOAD,2022-12-15 20:02:26,15.08838447,0.0001539,53.2178,160.8099,64.0417,296.0734,5.14e-05,5.3e-06,0.0,0 STARLINK-4656,1 53745U 22107AX  22349.83503454  .00000530  00000-0  51400-4 0  9990,2 53745  53.2178 160.8099 0001539  64.0417 296.0734 15.08838447 16472,6917.885,95.438,540.815,538.685,0.0
53745.0,STARLINK-4656,PAYLOAD,2022-12-16 11:56:18,15.08842299,0.0001537,53.2184,157.8361,65.7397,294.3755,5.5602e-05,5.97e-06,0.0,0 STARLINK-4656,1 53745U 22107AX  22350.49743238  .00000597  00000-0  55602-4 0  9991,2 53745  53.2184 157.8361 0001537  65.7397 294.3755 15.08842299 16575,6917.873000000001,95.437,540.802,538.675,0.0
53745.0,STARLINK-4656,PAYLOAD,2022-12-16 19:53:14,15.0883457,0.0001525,53.2186,156.3492,63.1102,297.0045,-4.3172e-05,-9.75e-06,0.0,0 STARLINK-4656,1 53745U 22107AX  22350.82863910 -.00000975  00000-0 -43172-4 0  9999,2 53745  53.2186 156.3492 0001525  63.1102 297.0045 15.08834570 15843,6917.897,95.438,540.817,538.707,0.0
53745.0,STARLINK-4656,PAYLOAD,2022-12-17 11:47:05,15.08834302,0.0001499,53.2186,153.3756,65.798,294.3169,-1.2004e-06,-3.07e-06,0.0,0 STARLINK-4656,1 53745U 22107AX  22351.49104067 -.00000307  00000-0 -12004-5 0  9994,2 53745  53.2186 153.3756 0001499  65.7980 294.3169 15.08834302 16723,6917.898,95.438,540.8,538.726,0.0
53745.0,STARLINK-4656,PAYLOAD,2022-12-17 18:08:38,15.08834699,0.0001518,53.2186,152.1863,64.8674,295.2475,6.7836e-05,7.92e-06,0.0,0 STARLINK-4656,1 53745U 22107AX  22351.75599930  .00000792  00000-0  67836-4 0  9998,2 53745  53.2186 152.1863 0001518  64.8674 295.2475 15.08834699 16764,6917.897,95.438,540.812,538.711,0.0
53745.0,STARLINK-4656,PAYLOAD,2022-12-18 11:37:52,15.08842466,0.0001535,53.219,148.9157,63.619,296.4959,9.3912e-05,1.207e-05,0.0,0 STARLINK-4656,1 53745U 22107AX  22352.48463541  .00001207  00000-0  93912-4 0  9993,2 53745  53.2190 148.9157 0001535  63.6190 296.4959 15.08842466 16094,6917.873000000001,95.437,540.8,538.6759999999998,0.0
53745.0,STARLINK-4656,PAYLOAD,2022-12-18 17:59:27,15.08728505,0.0002202,53.2189,147.7263,57.3917,302.7288,0.0018273,0.00028825,0.0,0 STARLINK-4656,1 53745U 22107AX  22352.74962768  .00028825  00000-0  18273-2 0  9997,2 53745  53.2189 147.7263 0002202  57.3917 302.7288 15.08728505 16910,6918.221,95.445,541.61,538.563,0.0
53745.0,STARLINK-4656,PAYLOAD,2022-12-19 11:28:39,15.08841192,0.0001606,53.2199,144.4561,69.4565,290.6599,0.00010676,1.412e-05,0.0,0 STARLINK-4656,1 53745U 22107AX  22353.47823753  .00001412  00000-0  10676-3 0  9991,2 53745  53.2199 144.4561 0001606  69.4565 290.6599 15.08841192 16240,6917.877,95.437,540.8530000000002,538.631,0.0
53745.0,STARLINK-4656,PAYLOAD,2022-12-19 19:25:34,15.08847535,0.0001559,53.219,142.9686,61.0845,299.0304,0.00013838,1.915e-05,0.0,0 STARLINK-4656,1 53745U 22107AX  22353.80943216  .00001915  00000-0  13838-3 0  9996,2 53745  53.2190 142.9686 0001559  61.0845 299.0304 15.08847535 17074,6917.857,95.437,540.8009999999998,538.644,0.0
53745.0,STARLINK-4656,PAYLOAD,2022-12-20 03:22:30,15.08853409,0.0001516,53.219,141.4821,62.0905,298.0241,0.00021109,3.074e-05,0.0,0 STARLINK-4656,1 53745U 22107AX  22354.14062570  .00003074  00000-0  21109-3 0  9997,2 53745  53.2190 141.4821 0001516  62.0905 298.0241 15.08853409 16345,6917.839,95.437,540.753,538.656,0.0
53745.0,STARLINK-4656,PAYLOAD,2022-12-20 09:44:02,15.08849553,0.0001437,53.2187,140.29399999999998,44.2523,315.8583,0.00016427,2.328e-05,0.0,0 STARLINK-4656,1 53745U 22107AX  22354.40558651  .00002328  00000-0  16427-3 0  9994,2 53745  53.2187 140.2940 0001437  44.2523 315.8583 15.08849553 17163,6917.851,95.437,540.71,538.722,0.0
53745.0,STARLINK-4656,PAYLOAD,2022-12-20 16:05:35,15.08851531,0.0001457,53.2192,139.1031,63.2621,296.8520000000001,6.2533e-05,7.08e-06,0.0,0 STARLINK-4656,1 53745U 22107AX  22354.67054618  .00000708  00000-0  62533-4 0  9997,2 53745  53.2192 139.1031 0001457  63.2621 296.8520 15.08851531 16425,6917.845,95.437,540.7180000000002,538.702,0.0
53745.0,STARLINK-4656,PAYLOAD,2022-12-21 09:34:50,15.08844232,0.000154,53.2192,135.8325,60.2363,299.8782,1.9444e-05,2.1e-07,0.0,0 STARLINK-4656,1 53745U 22107AX  22355.39919041  .00000021  00000-0  19444-4 0  9998,2 53745  53.2192 135.8325 0001540  60.2363 299.8782 15.08844232 16532,6917.8669999999975,95.437,540.798,538.6669999999998,0.0
53745.0,STARLINK-4656,PAYLOAD,2022-12-21 15:56:22,15.08846666,0.0001691,53.2201,134.6441,53.9641,306.1508,3.8664e-05,3.27e-06,0.0,0 STARLINK-4656,1 53745U 22107AX  22355.66414861  .00000327  00000-0  38664-4 0  9992,2 53745  53.2201 134.6441 0001691  53.9641 306.1508 15.08846666 17356,6917.86,95.437,540.895,538.555,0.0
53745.0,STARLINK-4656,PAYLOAD,2022-12-22 15:47:09,15.08838107,0.0001498,53.2188,130.1838,54.7808,305.3324,8.0163e-06,-1.6e-06,0.0,0 STARLINK-4656,1 53745U 22107AX  22356.65775014 -.00000160  00000-0  80163-5 0  9990,2 53745  53.2188 130.1838 0001498  54.7808 305.3324 15.08838107 16728,6917.886,95.438,540.7869999999998,538.715,0.0
53745.0,STARLINK-4656,PAYLOAD,2022-12-23 09:16:25,15.08829474,0.000151,53.2199,126.9135,54.6782,305.4351,-8.714500000000001e-06,-4.27e-06,0.0,0 STARLINK-4656,1 53745U 22107AX  22357.38640047 -.00000427  00000-0 -87145-5 0  9992,2 53745  53.2199 126.9135 0001510  54.6782 305.4351 15.08829474 16838,6917.913000000001,95.438,540.822,538.7330000000002,0.0
53745.0,STARLINK-4656,PAYLOAD,2022-12-23 18:48:44,15.08828792,0.0001553,53.2192,125.1285,53.6772,306.4363,-2.8535e-05,-7.42e-06,0.0,0 STARLINK-4656,1 53745U 22107AX  22357.78384384 -.00000742  00000-0 -28535-4 0  9992,2 53745  53.2192 125.1285 0001553  53.6772 306.4363 15.08828792 17672,6917.915,95.438,540.854,538.705,0.0
53745.0,STARLINK-4656,PAYLOAD,2022-12-24 07:31:48,15.08839535,0.0001607,53.2193,122.7493,52.097,308.0167,8.0964e-06,-1.59e-06,0.0,0 STARLINK-4656,1 53745U 22107AX  22358.31375976 -.00000159  00000-0  80964-5 0  9995,2 53745  53.2193 122.7493 0001607  52.0970 308.0167 15.08839535 16979,6917.882,95.438,540.859,538.635,0.0
53745.0,STARLINK-4656,PAYLOAD,2022-12-24 15:28:44,15.08837534,0.0001578,53.2192,121.2629,53.42,306.6937,0.00011839,1.597e-05,0.0,0 STARLINK-4656,1 53745U 22107AX  22358.64495746  .00001597  00000-0  11839-3 0  9998,2 53745  53.2192 121.2629 0001578  53.4200 306.6937 15.08837534 17800,6917.888000000001,95.438,540.845,538.661,0.0
53745.0,STARLINK-4656,PAYLOAD,2022-12-25 10:33:22,15.08826838,0.0001644,53.2191,117.695,53.2513,306.863,0.00010314,1.353e-05,0.0,0 STARLINK-4656,1 53745U 22107AX  22359.43984950  .00001353  00000-0  10314-3 0  9993,2 53745  53.2191 117.6950 0001644  53.2513 306.8630 15.08826838 17148,6917.920999999999,95.438,540.923,538.648,0.0
53745.0,STARLINK-4656,PAYLOAD,2022-12-25 18:30:18,15.08829373,0.0001681,53.2193,116.2081,52.8718,307.2427,0.00011477,1.538e-05,0.0,0 STARLINK-4656,1 53745U 22107AX  22359.77105057  .00001538  00000-0  11477-3 0  9999,2 53745  53.2193 116.2081 0001681  52.8718 307.2427 15.08829373 17970,6917.913000000001,95.438,540.941,538.615,0.0
